1 62259U 24234A   24341.70213205  .00086065  67068-6  28617-2 0  9997
2 62259  27.0358 152.0511 6409031 175.6905 195.1868  3.50802538    48